[{"OBJECT_NAME":"TISAT 1","OBJECT_ID":"2010-035E","EPOCH":"2026-03-09T18:10:07.877568","MEAN_MOTION":15.27628633,"ECCENTRICITY":0.00013432,"INCLINATION":98.0645,"RA_OF_ASC_NODE":6.8512,"ARG_OF_PERICENTER":159.303,"MEAN_ANOMALY":200.8262,"EPHEMERIS_TYPE":0,"CLASSIFICATION_TYPE":"U","NORAD_CAT_ID":36799,"ELEMENT_SET_NO":999,"REV_AT_EPOCH":85250,"BSTAR":0.00091004793,"MEAN_MOTION_DOT":0.00024554,"MEAN_MOTION_DDOT":0},{"OBJECT_NAME":"STARLINK-33959","OBJECT_ID":"2025-092P","EPOCH":"2026-03-09T07:46:25.603680","MEAN_MOTION":15.2759478,"ECCENTRICITY":0.00023516,"INCLINATION":42.9947,"RA_OF_ASC_NODE":174.184,"ARG_OF_PERICENTER":286.5649,"MEAN_ANOMALY":73.4944,"EPHEMERIS_TYPE":0,"CLASSIFICATION_TYPE":"U","NORAD_CAT_ID":63817,"ELEMENT_SET_NO":999,"REV_AT_EPOCH":4861,"BSTAR":0.0010890847,"MEAN_MOTION_DOT":0.00029843,"MEAN_MOTION_DDOT":0}]
